TROPICS-07              
1 56754U 23073C   23160.28175052  .00007547  00000+0  47946-3 0  9999
2 56754  32.7361 117.7176 0015394 349.3143  10.7197 15.07703575  2131
ELECTRON R/B            
1 56755U 23073D   23160.27817802  .00001998  00000+0  12834-3 0  9997
2 56755  35.4634 121.3678 0025336 306.6098  53.2290 15.08229602  2136
COSMOS 2569             
1 56756U 23074A   23160.58297641  .00004579  00000+0  22407-3 0  9991
2 56756  97.4388 355.1565 0001619  86.9946 273.1474 15.18687814  2086
ARABSAT-7B (BADR-8)     
1 56757U 23075A   23160.75000000 -.00000029  00000+0  00000+0 0  9991
2 56757  22.2057 145.2359 7919533 183.4982 277.2835  1.09586262   150
FALCON 9 R/B            
1 56758U 23075B   23160.04088266  .00000015  00000+0  44803-3 0  9991
2 56758  27.8179 145.8495 8178208 183.5832 159.6810  1.20342259   140
IRNSS-1J (NVS-01)       
1 56759U 23076A   23160.80000000 -.00000332  00000+0  00000+0 0  9997
2 56759   4.9630 273.7160 0009208  46.8770 354.9080  1.00343841   141
GSLV R/B                
1 56760U 23076B   23160.30081612  .00070404 -66437-6  28917-2 0  9992
2 56760  19.2218 265.5639 7510768 185.4620 155.0642  2.03397668   215
SHENZHOU-16 (SZ-16)     
1 56761U 23077A   23160.48272594  .00020801  00000+0  25411-3 0  9993
2 56761  41.4734 202.6987 0002982 320.6161  39.4460 15.59930850120637
CZ-2F R/B               
1 56766U 23077F   23160.49156613  .01750615  77384-5  46453-3 0  9990
2 56766  41.4678 197.7628 0057197 208.1322 293.3015 16.22650997  1673
STARLINK-6197           
1 56767U 23078A   23160.58190691 -.00101696  00000+0 -42793-3 0  9994
2 56767  70.0042  27.3977 0007209 181.2755 178.8432 15.85378676  1503
STARLINK-6198           
1 56768U 23078B   23160.58163721 -.00099945  00000+0 -41957-3 0  9993
2 56768  70.0060  27.3978 0006602 184.7054 175.4089 15.85430498  1503
STARLINK-5978           
1 56769U 23078C   23160.58179902 -.00103056  00000+0 -43294-3 0  9997
2 56769  70.0053  27.3980 0006940 183.2006 176.9154 15.85420338  1506
STARLINK-6342           
1 56770U 23078D   23160.58185719 -.00129144  00000+0 -54624-3 0  9997
2 56770  70.0054  27.3985 0005373 195.0739 165.0305 15.85367911  1501
STARLINK-6339           
1 56771U 23078E   23160.58157841 -.00094358  00000+0 -39558-3 0  9990
2 56771  70.0038  27.3965 0005546 190.8431 169.2654 15.85454261  1504
STARLINK-6275           
1 56772U 23078F   23160.58174343 -.00101824  00000+0 -42816-3 0  9995
2 56772  70.0050  27.3977 0005959 186.1090 174.0042 15.85409311  1500
STARLINK-6296           
1 56773U 23078G   23160.58152325 -.00099267  00000+0 -41597-3 0  9994
2 56773  70.0041  27.3960 0005753 190.0453 170.0637 15.85475685  1505
STARLINK-6190           
1 56774U 23078H   23160.58169433 -.00094372  00000+0 -39618-3 0  9996
2 56774  70.0048  27.3969 0004858 197.7402 162.3633 15.85432631  1509
STARLINK-6292           
1 56775U 23078J   23160.58125112 -.00103747  00000+0 -43440-3 0  9998
2 56775  70.0043  27.3949 0005355 190.9012 169.2077 15.85509078  1506
STARLINK-6274           
1 56776U 23078K   23160.58147437 -.00135163  00000+0 -56988-3 0  9991
2 56776  70.0053  27.3965 0005589 195.9287 164.1742 15.85447632  1504
STARLINK-5582           
1 56777U 23078L   23160.58108087 -.00018532  00000+0 -75433-4 0  9997
2 56777  70.0037  27.3945 0007554 186.2642 173.8469 15.85617097  1504
STARLINK-6304           
1 56778U 23078M   23160.58141880 -.00124854  00000+0 -52583-3 0  9991
2 56778  70.0054  27.3962 0005010 200.3723 159.7282 15.85449374  1503
STARLINK-6231           
1 56779U 23078N   23160.58082088 -.00092300  00000+0 -38369-3 0  9992
2 56779  70.0035  27.3931 0006568 185.6178 174.4953 15.85612206  1502
STARLINK-5963           
1 56780U 23078P   23160.58103763 -.00124767  00000+0 -52378-3 0  9997
2 56780  70.0040  27.3944 0005026 202.8420 157.2561 15.85515522  1501
STARLINK-5989           
1 56781U 23078Q   23160.58059173  .00004671  00000+0  20310-4 0  9994
2 56781  70.0030  27.3920 0004344 222.3129 137.7740 15.85725914  1500
STARLINK-6352           
1 56782U 23078R   23160.58135888 -.00131959  00000+0 -55571-3 0  9991
2 56782  70.0050  27.3959 0005544 197.6611 162.4401 15.85464452  1504
STARLINK-6357           
1 56783U 23078S   23160.58119872 -.00131332  00000+0 -55201-3 0  9992
2 56783  70.0044  27.3940 0005722 196.1862 163.9160 15.85500628  1502
STARLINK-6354           
1 56784U 23078T   23160.58130278 -.00098124  00000+0 -41042-3 0  9995
2 56784  70.0049  27.3955 0005268 191.6891 168.4192 15.85515813  1508
STARLINK-5931           
1 56785U 23078U   23160.58071484 -.00132113  00000+0 -55313-3 0  9992
2 56785  70.0045  27.3925 0005638 194.2974 165.8072 15.85584417  2194
STARLINK-6341           
1 56786U 23078V   23160.64424853 -.00126853  00000+0 -53569-3 0  9997
2 56786  70.0055  27.2138 0005122 186.4778 173.6360 15.85397725  1510
STARLINK-6326           
1 56787U 23078W   23160.64397325 -.00025909  00000+0 -10683-3 0  9991
2 56787  70.0042  27.2110 0005343 188.2972 171.8144 15.85482388  1518
STARLINK-6336           
1 56788U 23078X   23160.58334491 -.00944544  00000+0 -43958-2 0  9995
2 56788  70.0048  27.3874 0003771 233.3148 140.2725 15.85321031  1302
STARLINK-6325           
1 56789U 23078Y   23160.58334491 -.00950108  00000+0 -43978-2 0  9991
2 56789  70.0043  27.3822 0003850 227.4643 149.8247 15.85444750  1301
STARLINK-6345           
1 56790U 23078Z   23160.58334491 -.00968789  00000+0 -45173-2 0  9996
2 56790  70.0043  27.3868 0003720 236.5008 137.3940 15.85339940  1301
STARLINK-5977           
1 56791U 23078AA  23160.58334491 -.00942981  00000+0 -43686-2 0  9990
2 56791  70.0032  27.3832 0003720 233.8821 142.4680 15.85411787  1302
STARLINK-6046           
1 56792U 23078AB  23160.58334491 -.00943026  00000+0 -43796-2 0  9994
2 56792  70.0030  27.3856 0003692 234.4240 140.3788 15.85361448  1301
STARLINK-6052           
1 56793U 23078AC  23160.58334491 -.00944806  00000+0 -43599-2 0  9993
2 56793  70.0037  27.3799 0003990 226.8764 151.9457 15.85493117  1302
STARLINK-6060           
1 56794U 23078AD  23160.58334491 -.00947349  00000+0 -43928-2 0  9995
2 56794  70.0050  27.3843 0003744 229.8278 146.2266 15.85403265  1308
STARLINK-6061           
1 56795U 23078AE  23160.58334491 -.00964378  00000+0 -44464-2 0  9993
2 56795  70.0036  27.3777 0003695 238.2810 142.3519 15.85561493  1306
STARLINK-6049           
1 56796U 23078AF  23160.58334491 -.00949555  00000+0 -44083-2 0  9991
2 56796  70.0037  27.3846 0003751 227.6005 147.8435 15.85383723  1301
STARLINK-6058           
1 56797U 23078AG  23160.58334491 -.00945136  00000+0 -43657-2 0  9999
2 56797  70.0027  27.3806 0004047 224.5457 153.6647 15.85472873  1768
STARLINK-6068           
1 56798U 23078AH  23160.58334491 -.00939044  00000+0 -43469-2 0  9992
2 56798  70.0037  27.3831 0003836 244.3090 132.3606 15.85417202  1300
STARLINK-5953           
1 56799U 23078AJ  23160.58334491 -.00966032  00000+0 -44439-2 0  9998
2 56799  70.0034  27.3757 0003702 237.3687 144.8036 15.85612097  1305
STARLINK-6036           
1 56800U 23078AK  23160.58334491 -.00964491  00000+0 -44734-2 0  9996
2 56800  70.0039  27.3828 0003669 238.1231 138.8404 15.85439976  1303
STARLINK-6087           
1 56801U 23078AL  23160.58334491 -.00959639  00000+0 -44271-2 0  9991
2 56801  70.0033  27.3786 0003633 241.3019 138.7217 15.85539229  1305
STARLINK-6070           
1 56802U 23078AM  23160.58334491 -.00943140  00000+0 -43585-2 0  9999
2 56802  70.0034  27.3817 0003743 233.5702 144.2985 15.85462975  1303
STARLINK-6029           
1 56803U 23078AN  23160.58334491 -.00943063  00000+0 -43475-2 0  9992
2 56803  70.0033  27.3791 0003726 233.9625 145.4458 15.85513368  1304
STARLINK-6069           
1 56804U 23078AP  23160.64338454 -.00126186  00000+0 -52886-3 0  9999
2 56804  70.0038  27.2092 0004638 202.0887 158.0117 15.85557269  2180
STARLINK-6064           
1 56805U 23078AQ  23160.64311570 -.00114493  00000+0 -47823-3 0  9993
2 56805  70.0032  27.2070 0004140 231.6656 128.4176 15.85600358  1511
STARLINK-6072           
1 56806U 23078AR  23160.64322234 -.00112596  00000+0 -47044-3 0  9990
2 56806  70.0037  27.2085 0004335 228.1052 131.9783 15.85587579  1512
STARLINK-6073           
1 56807U 23078AS  23160.57954295 -.00104051  00000+0 -42851-3 0  9999
2 56807  70.0034  27.3873 0006177 188.1259 171.9845 15.85844099  1501
STARLINK-6042           
1 56808U 23078AT  23160.57959610 -.00095158  00000+0 -39184-3 0  9998
2 56808  70.0033  27.3876 0005154 191.9595 168.1488 15.85832004  1507
STARLINK-6040           
1 56809U 23078AU  23160.57964559 -.00084844  00000+0 -34892-3 0  9998
2 56809  70.0025  27.3872 0005705 191.1760 168.9318 15.85822203  1503
STARLINK-6031           
1 56810U 23078AV  23160.57991653 -.00102788  00000+0 -42520-3 0  9990
2 56810  70.0039  27.3887 0004891 193.7776 166.3295 15.85761904  1502
STARLINK-6063           
1 56811U 23078AW  23160.57938154 -.00141554  00000+0 -58624-3 0  9994
2 56811  70.0035  27.3855 0005890 189.3909 170.7186 15.85831397  1505
STARLINK-6065           
1 56812U 23078AX  23160.57970041 -.00096635  00000+0 -39886-3 0  9994
2 56812  70.0039  27.3883 0004594 200.5676 159.5344 15.85792905  1500
STARLINK-6056           
1 56813U 23078AY  23160.57932785 -.00128725  00000+0 -53182-3 0  9999
2 56813  70.0032  27.3858 0005520 196.9856 163.1164 15.85852220  1502
STARLINK-6059           
1 56814U 23078AZ  23160.57943483 -.00127340  00000+0 -52697-3 0  9999
2 56814  70.0034  27.3867 0004492 205.3778 154.7206 15.85824208  1508
STARLINK-6057           
1 56815U 23078BA  23160.57921455 -.00101591  00000+0 -41684-3 0  9999
2 56815  70.0032  27.3852 0006298 185.2019 174.9120 15.85911926  1504
STARLINK-6067           
1 56816U 23078BB  23160.57927124 -.00101511  00000+0 -41703-3 0  9993
2 56816  70.0038  27.3865 0005441 193.0872 167.0192 15.85895431  1502
